start=new Date('2021-09-17T00:00:00.000Z').valueOf();
sats=[{"ECCENTRICITY":"0.00009640","EPOCH":"2021-09-16T16:47:32.352864","ELEMENT_SET_NO":"999","PERIAPSIS":"546.541","MEAN_ANOMALY":"251.1895","BSTAR":"0.00009054800000","CENTER_NAME":"EARTH","FILE":"3117438","MEAN_MOTION_DOT":"0.00001068","REV_AT_EPOCH":"10176","EPHEMERIS_TYPE":"0","DECAY_DATE":null,"INCLINATION":"53.0558","TIME_SYSTEM":"UTC","NORAD_CAT_ID":"44748","MEAN_ELEMENT_THEORY":"SGP4","RCS_SIZE":"LARGE","OBJECT_ID":"2019-074AM","MEAN_MOTION_DDOT":"0.0000000000000","PERIOD":"95.592","CLASSIFICATION_TYPE":"U","LAUNCH_DATE":"2019-11-11","TLE_LINE2":"2 44748  53.0558   6.3746 0000964 108.9199 251.1895 15.06401647101767","RA_OF_ASC_NODE":"6.3746","ARG_OF_PERICENTER":"108.9199","OBJECT_TYPE":"PAYLOAD","OBJECT_NAME":"STARLINK-1043","TLE_LINE1":"1 44748U 19074AM  21259.69968001  .00001068  00000-0  90548-4 0  9991","APOAPSIS":"547.876","SITE":"AFETR","REF_FRAME":"TEME","SEMIMAJOR_AXIS":"6925.344","GP_ID":"184851173","COUNTRY_CODE":"US","MEAN_MOTION":"15.06401647"},{"OBJECT_ID":"2019-074AN","MEAN_MOTION_DDOT":"0.0000000000000","PERIOD":"90.798","RCS_SIZE":"LARGE","MEAN_ELEMENT_THEORY":"SGP4","TLE_LINE2":"2 44749  53.0543 300.3721 0007744 276.2325  83.7816 15.85943701102677","LAUNCH_DATE":"2019-11-11","CLASSIFICATION_TYPE":"U","OBJECT_TYPE":"PAYLOAD","OBJECT_NAME":"STARLINK-1044","ARG_OF_PERICENTER":"276.2325","RA_OF_ASC_NODE":"300.3721","APOAPSIS":"318.853","REF_FRAME":"TEME","SITE":"AFETR","TLE_LINE1":"1 44749U 19074AN  21259.58153935  .00165850  00000-0  65029-3 0  9997","SEMIMAJOR_AXIS":"6691.806","GP_ID":"184849427","MEAN_MOTION":"15.85943701","COUNTRY_CODE":"US","ECCENTRICITY":"0.00077440","EPOCH":"2021-09-16T13:57:24.999840","ELEMENT_SET_NO":"999","PERIAPSIS":"308.489","MEAN_ANOMALY":"83.7816","CENTER_NAME":"EARTH","FILE":"3117438","BSTAR":"0.00065029000000","REV_AT_EPOCH":"10267","INCLINATION":"53.0543","DECAY_DATE":null,"EPHEMERIS_TYPE":"0","MEAN_MOTION_DOT":"0.00165850","NORAD_CAT_ID":"44749","TIME_SYSTEM":"UTC"},{"TIME_SYSTEM":"UTC","NORAD_CAT_ID":"44751","MEAN_MOTION_DOT":"0.00000872","REV_AT_EPOCH":"10176","DECAY_DATE":null,"INCLINATION":"53.0568","EPHEMERIS_TYPE":"0","BSTAR":"0.00007740300000","CENTER_NAME":"EARTH","FILE":"3117438","PERIAPSIS":"546.503","MEAN_ANOMALY":"254.3003","ELEMENT_SET_NO":"999","ECCENTRICITY":"0.00010090","EPOCH":"2021-09-16T17:08:45.820608","MEAN_MOTION":"15.06403712","COUNTRY_CODE":"US","GP_ID":"184850176","SEMIMAJOR_AXIS":"6925.337","TLE_LINE1":"1 44751U 19074AQ  21259.71441922  .00000872  00000-0  77403-4 0  9993","APOAPSIS":"547.901","REF_FRAME":"TEME","SITE":"AFETR","RA_OF_ASC_NODE":"6.3141","OBJECT_TYPE":"PAYLOAD","OBJECT_NAME":"STARLINK-1046","ARG_OF_PERICENTER":"105.8097","CLASSIFICATION_TYPE":"U","TLE_LINE2":"2 44751  53.0568   6.3141 0001009 105.8097 254.3003 15.06403712101766","LAUNCH_DATE":"2019-11-11","MEAN_ELEMENT_THEORY":"SGP4","RCS_SIZE":"LARGE","OBJECT_ID":"2019-074AQ","MEAN_MOTION_DDOT":"0.0000000000000","PERIOD":"95.592"},{"ECCENTRICITY":"0.00010580","EPOCH":"2021-09-16T16:02:25.149696","ELEMENT_SET_NO":"999","MEAN_MOTION_DOT":"0.00001201","REV_AT_EPOCH":"10203","DECAY_DATE":null,"EPHEMERIS_TYPE":"0","INCLINATION":"53.0551","TIME_SYSTEM":"UTC","NORAD_CAT_ID":"44752","PERIAPSIS":"546.491","MEAN_ANOMALY":"244.8664","BSTAR":"0.00009947400000","CENTER_NAME":"EARTH","FILE":"3117438","RA_OF_ASC_NODE":"346.5145","OBJECT_TYPE":"PAYLOAD","ARG_OF_PERICENTER":"115.2435","OBJECT_NAME":"STARLINK-1047","TLE_LINE1":"1 44752U 19074AR  21259.66834664  .00001201  00000-0  99474-4 0  9996","APOAPSIS":"547.957","REF_FRAME":"TEME","SITE":"AFETR","RCS_SIZE":"LARGE","MEAN_ELEMENT_THEORY":"SGP4","MEAN_MOTION_DDOT":"0.0000000000000","OBJECT_ID":"2019-074AR","PERIOD":"95.592","CLASSIFICATION_TYPE":"U","LAUNCH_DATE":"2019-11-11","TLE_LINE2":"2 44752  53.0551 346.5145 0001058 115.2435 244.8664 15.06396644102030","GP_ID":"184850928","MEAN_MOTION":"15.06396644","COUNTRY_CODE":"US","SEMIMAJOR_AXIS":"6925.359"},{"ELEMENT_SET_NO":"999","ECCENTRICITY":"0.00011230","EPOCH":"2021-09-16T16:10:23.551680","TIME_SYSTEM":"UTC","NORAD_CAT_ID":"44753","MEAN_MOTION_DOT":"-0.00000574","REV_AT_EPOCH":"10231","DECAY_DATE":null,"EPHEMERIS_TYPE":"0","INCLINATION":"53.0556","BSTAR":"-0.00001966500000","CENTER_NAME":"EARTH","FILE":"3117438","PERIAPSIS":"546.457","MEAN_ANOMALY":"252.7387","TLE_LINE1":"1 44753U 19074AS  21259.67388370 -.00000574  00000-0 -19665-4 0  9994","APOAPSIS":"548.012","SITE":"AFETR","REF_FRAME":"TEME","RA_OF_ASC_NODE":"326.5042","OBJECT_TYPE":"PAYLOAD","OBJECT_NAME":"STARLINK-1048","ARG_OF_PERICENTER":"107.3725","CLASSIFICATION_TYPE":"U","TLE_LINE2":"2 44753  53.0556 326.5042 0001123 107.3725 252.7387 15.06393227102312","LAUNCH_DATE":"2019-11-11","RCS_SIZE":"LARGE","MEAN_ELEMENT_THEORY":"SGP4","OBJECT_ID":"2019-074AS","MEAN_MOTION_DDOT":"0.0000000000000","PERIOD":"95.593","COUNTRY_CODE":"US","MEAN_MOTION":"15.06393227","GP_ID":"184850674","SEMIMAJOR_AXIS":"6925.369"},{"MEAN_ANOMALY":"261.3879","PERIAPSIS":"546.677","BSTAR":"0.00001137400000","FILE":"3117438","CENTER_NAME":"EARTH","MEAN_MOTION_DOT":"-0.00000112","DECAY_DATE":null,"EPHEMERIS_TYPE":"0","INCLINATION":"53.0556","REV_AT_EPOCH":"10231","TIME_SYSTEM":"UTC","NORAD_CAT_ID":"44754","EPOCH":"2021-09-16T16:15:42.075648","ECCENTRICITY":"0.00007890","ELEMENT_SET_NO":"999","SEMIMAJOR_AXIS":"6925.359","GP_ID":"184849927","MEAN_MOTION":"15.06396665","COUNTRY_CODE":"US","RCS_SIZE":"LARGE","MEAN_ELEMENT_THEORY":"SGP4","PERIOD":"95.592","MEAN_MOTION_DDOT":"0.0000000000000","OBJECT_ID":"2019-074AT","CLASSIFICATION_TYPE":"U","TLE_LINE2":"2 44754  53.0556 326.4782 0000789  98.7200 261.3879 15.06396665102312","LAUNCH_DATE":"2019-11-11","RA_OF_ASC_NODE":"326.4782","ARG_OF_PERICENTER":"98.7200","OBJECT_TYPE":"PAYLOAD","OBJECT_NAME":"STARLINK-1049","TLE_LINE1":"1 44754U 19074AT  21259.67757032 -.00000112  00000-0  11374-4 0  9996","REF_FRAME":"TEME","SITE":"AFETR","APOAPSIS":"547.770"},{"OBJECT_TYPE":"PAYLOAD","OBJECT_NAME":"STARLINK-1050","ARG_OF_PERICENTER":"89.4345","RA_OF_ASC_NODE":"6.5786","SITE":"AFETR","REF_FRAME":"TEME","APOAPSIS":"548.180","TLE_LINE1":"1 44755U 19074AU  21259.66188545 -.00000482  00000-0 -13462-4 0  9994","PERIOD":"95.593","OBJECT_ID":"2019-074AU","MEAN_MOTION_DDOT":"0.0000000000000","RCS_SIZE":"LARGE","MEAN_ELEMENT_THEORY":"SGP4","LAUNCH_DATE":"2019-11-11","TLE_LINE2":"2 44755  53.0565   6.5786 0001349  89.4345 270.6798 15.06389504102309","CLASSIFICATION_TYPE":"U","GP_ID":"184849677","COUNTRY_CODE":"US","MEAN_MOTION":"15.06389504","SEMIMAJOR_AXIS":"6925.381","EPOCH":"2021-09-16T15:53:06.902880","ECCENTRICITY":"0.00013490","ELEMENT_SET_NO":"999","DECAY_DATE":null,"EPHEMERIS_TYPE":"0","INCLINATION":"53.0565","REV_AT_EPOCH":"10230","MEAN_MOTION_DOT":"-0.00000482","NORAD_CAT_ID":"44755","TIME_SYSTEM":"UTC","MEAN_ANOMALY":"270.6798","PERIAPSIS":"546.311","FILE":"3117438","CENTER_NAME":"EARTH","BSTAR":"-0.00001346200000"},{"NORAD_CAT_ID":"44756","TIME_SYSTEM":"UTC","REV_AT_EPOCH":"10299","EPHEMERIS_TYPE":"0","DECAY_DATE":null,"INCLINATION":"53.0519","MEAN_MOTION_DOT":"-0.00004077","CENTER_NAME":"EARTH","FILE":"3117438","BSTAR":"-0.00002965000000","PERIAPSIS":"359.084","MEAN_ANOMALY":"351.4456","ELEMENT_SET_NO":"999","ECCENTRICITY":"0.00039290","EPOCH":"2021-09-16T18:17:32.562816","MEAN_MOTION":"15.69010113","COUNTRY_CODE":"US","GP_ID":"184850429","SEMIMAJOR_AXIS":"6739.867","APOAPSIS":"364.380","SITE":"AFETR","REF_FRAME":"TEME","TLE_LINE1":"1 44756U 19074AV  21259.76218244 -.00004077  00000-0 -29650-4 0  9996","OBJECT_TYPE":"PAYLOAD","OBJECT_NAME":"STARLINK-1051","ARG_OF_PERICENTER":"8.6627","RA_OF_ASC_NODE":"278.4801","LAUNCH_DATE":"2019-11-11","TLE_LINE2":"2 44756  53.0519 278.4801 0003929   8.6627 351.4456 15.69010113102999","CLASSIFICATION_TYPE":"U","OBJECT_ID":"2019-074AV","MEAN_MOTION_DDOT":"0.0000000000000","PERIOD":"91.778","MEAN_ELEMENT_THEORY":"SGP4","RCS_SIZE":"LARGE"},{"RCS_SIZE":"LARGE","MEAN_ELEMENT_THEORY":"SGP4","MEAN_MOTION_DDOT":"0.0000000000000","OBJECT_ID":"2019-074AW","PERIOD":"95.592","CLASSIFICATION_TYPE":"U","TLE_LINE2":"2 44757  53.0543 346.1562 0001020 109.2563 250.8537 15.06405176102047","LAUNCH_DATE":"2019-11-11","RA_OF_ASC_NODE":"346.1562","OBJECT_TYPE":"PAYLOAD","OBJECT_NAME":"STARLINK-1052","ARG_OF_PERICENTER":"109.2563","TLE_LINE1":"1 44757U 19074AW  21259.74575275  .00002570  00000-0  19131-3 0  9991","APOAPSIS":"547.904","SITE":"AFETR","REF_FRAME":"TEME","SEMIMAJOR_AXIS":"6925.333","GP_ID":"184851174","COUNTRY_CODE":"US","MEAN_MOTION":"15.06405176","EPOCH":"2021-09-16T17:53:53.037600","ECCENTRICITY":"0.00010200","ELEMENT_SET_NO":"999","PERIAPSIS":"546.491","MEAN_ANOMALY":"250.8537","BSTAR":"0.00019131000000","CENTER_NAME":"EARTH","FILE":"3117438","MEAN_MOTION_DOT":"0.00002570","REV_AT_EPOCH":"10204","DECAY_DATE":null,"EPHEMERIS_TYPE":"0","INCLINATION":"53.0543","TIME_SYSTEM":"UTC","NORAD_CAT_ID":"44757"},{"ARG_OF_PERICENTER":"127.9190","OBJECT_TYPE":"PAYLOAD","OBJECT_NAME":"STARLINK-1053","RA_OF_ASC_NODE":"7.0183","REF_FRAME":"TEME","SITE":"AFETR","APOAPSIS":"548.335","TLE_LINE1":"1 44758U 19074AX  21259.55498864 -.00000186  00000-0  63941-5 0  9991","PERIOD":"95.592","OBJECT_ID":"2019-074AX","MEAN_MOTION_DDOT":"0.0000000000000","RCS_SIZE":"LARGE","MEAN_ELEMENT_THEORY":"SGP4","TLE_LINE2":"2 44758  53.0551   7.0183 0001594 127.9190 232.1943 15.06394380101742","LAUNCH_DATE":"2019-11-11","CLASSIFICATION_TYPE":"U","GP_ID":"184819222","MEAN_MOTION":"15.06394380","COUNTRY_CODE":"US","SEMIMAJOR_AXIS":"6925.366","EPOCH":"2021-09-16T13:19:11.018496","ECCENTRICITY":"0.00015940","ELEMENT_SET_NO":"999","DECAY_DATE":null,"EPHEMERIS_TYPE":"0","INCLINATION":"53.0551","REV_AT_EPOCH":"10174","MEAN_MOTION_DOT":"-0.00000186","NORAD_CAT_ID":"44758","TIME_SYSTEM":"UTC","MEAN_ANOMALY":"232.1943","PERIAPSIS":"546.127","FILE":"3117121","CENTER_NAME":"EARTH","BSTAR":"0.00000639410000"}];
